[{"OBJECT_NAME":"STARLINK-5853","OBJECT_ID":"2023-083F","EPOCH":"2026-03-09T01:41:13.170048","MEAN_MOTION":15.02533583,"ECCENTRICITY":0.00011351,"INCLINATION":43.0035,"RA_OF_ASC_NODE":85.4505,"ARG_OF_PERICENTER":261.2397,"MEAN_ANOMALY":98.8316,"EPHEMERIS_TYPE":0,"CLASSIFICATION_TYPE":"U","NORAD_CAT_ID":56881,"ELEMENT_SET_NO":999,"REV_AT_EPOCH":15157,"BSTAR":1.622191e-5,"MEAN_MOTION_DOT":1.6e-7,"MEAN_MOTION_DDOT":0},{"OBJECT_NAME":"FENGYUN 1C DEB","OBJECT_ID":"1999-025AJJ","EPOCH":"2026-03-09T18:40:58.380672","MEAN_MOTION":15.18672988,"ECCENTRICITY":0.00638575,"INCLINATION":98.7226,"RA_OF_ASC_NODE":259.4919,"ARG_OF_PERICENTER":168.3626,"MEAN_ANOMALY":191.9098,"EPHEMERIS_TYPE":0,"CLASSIFICATION_TYPE":"U","NORAD_CAT_ID":30520,"ELEMENT_SET_NO":999,"REV_AT_EPOCH":2360,"BSTAR":0.0014000942,"MEAN_MOTION_DOT":0.0003064,"MEAN_MOTION_DDOT":0}]
